162P/Siding Spring,e,27.5572,30.9360,357.1067,3.091334,0.1813364,0.58301658,313.2524,03/25.0/2020,2000,g  9.0,4.0
# From MPC102101
163P/NEAT,e,12.7079,102.0916,349.6817,3.770374,0.1346255,0.45190907,31.3421,03/25.0/2020,2000,g 14.5,4.0
# From MPC106349
164P/Christensen,e,16.2533,88.3056,325.8706,3.658679,0.1408373,0.53962825,93.4756,03/25.0/2020,2000,g 11.0,4.0
# From MPC 75721
165P/LINEAR,e,15.9000,0.7343,126.2589,17.90657,0.0130073,0.61484037,94.2768,03/25.0/2020,2000,g 11.5,2.0
# From MPC 75722
166P/NEAT,e,15.3606,64.5102,321.4742,13.83595,0.0191510,0.38176364,125.1501,03/25.0/2020,2000,g  5.5,4.0
# From MPC 75722
167P/CINEOS,e,19.1208,295.6570,344.0988,16.18183,0.0151413,0.27311644,104.4794,03/25.0/2020,2000,g  9.5,2.0
# From MPC102101
168P/Hergenrother,e,21.6118,355.4664,14.9920,3.581909,0.1453892,0.62064245,33.8524,03/25.0/2020,2000,g 15.5,4.0
# From MPEC 2015-M77
169P/NEAT,e,11.2951,176.0866,218.0740,2.601489,0.2348936,0.76793518,163.3827,03/25.0/2020,2000,g  9.0,4.0
# From MPC 89012
170P/Christensen,e,10.1249,142.9193,225.6575,4.198157,0.1145819,0.30334047,231.3263,03/25.0/2020,2000,g 12.0,4.0
# From MPC102102
171P/Spahr,e,21.9338,101.6965,347.1251,3.556840,0.1469290,0.50172388,64.1158,03/25.0/2020,2000,g 13.5,4.0
# From MPEC 2019-VB6
172P/Yeung,e,11.2338,30.8965,209.3542,4.210097,0.1140948,0.20624747,126.3235,03/25.0/2020,2000,g 13.0,4.0
# From MPEC 2019-VB6
173P/Mueller,e,16.4972,100.4010,29.3798,5.700236,0.0724210,0.26052221,314.1392,03/25.0/2020,2000,g  7.5,4.0
# From MPC 92985
174P/Echeclus,e,4.3431,173.2712,162.8930,10.70100,0.0281558,0.45695698,50.6281,03/25.0/2020,2000,g  9.4,2.0
# From MPC114608
175P/Hergenrother,e,6.0774,123.5305,56.2167,3.428079,0.1552844,0.43220857,27.3539,03/25.0/2020,2000,g 14.0,4.0
# From MPC 89015
176P/LINEAR,e,0.2347,345.8819,35.1637,3.193175,0.1727309,0.19293828,191.7178,03/25.0/2020,2000,g 15.1,2.0
# From MPC 75723
177P/Barnard,e,31.3368,272.3574,60.1608,24.37379,0.0081907,0.95505036,40.6005,03/25.0/2020,2000,g 15.0,4.0
# From MPC105242
178P/Hug-Bell,e,11.0897,102.8747,297.7829,3.630025,0.1425082,0.48174326,343.8102,03/25.0/2020,2000,g 13.5,4.0
# From MPC 75723
179P/Jedicke,e,19.8986,115.5251,296.4560,5.944108,0.0680102,0.30606582,306.0444,03/25.0/2020,2000,g  2.5,8.0
# From MPC100284
180P/NEAT,e,16.8684,84.5561,94.9037,3.860790,0.1299241,0.35345050,203.4750,03/25.0/2020,2000,g 11.0,4.0
# From MPC 89012
181P/Shoemaker-Levy,e,17.4853,35.4114,336.2578,3.870636,0.1294287,0.70031817,275.2309,03/25.0/2020,2000,g 11.5,4.0
# From MPEC 2014-J10
182P/LONEOS,e,16.2388,72.7478,53.7985,2.956791,0.1938533,0.66132203,208.9451,03/25.0/2020,2000,g 18.0,4.0
# From MPC110085
183P/Korlevic-Juric,e,18.6776,5.4456,163.5117,4.515767,0.1027086,0.13985006,87.4129,03/25.0/2020,2000,g 12.5,2.0
# From MPC105242
184P/Lovas,e,4.5723,173.2780,186.4176,3.795487,0.1332916,0.55131043,331.3198,03/25.0/2020,2000,g 13.5,4.0
# From MPC109593
185P/Petriew,e,13.9964,214.0964,181.8894,3.099715,0.1806015,0.69883975,142.2234,03/25.0/2020,2000,g 15.0,4.0
# From MPC100284
186P/Garradd,e,28.4787,326.8572,283.9994,5.012902,0.0878153,0.12440477,28.5290,03/25.0/2020,2000,g  7.5,4.0
# From MPC104795
187P/LINEAR,e,13.6348,109.9238,132.2963,4.575011,0.1007200,0.15255590,68.0918,03/25.0/2020,2000,g  9.0,4.0
# From MPC106349
188P/LINEAR-Mueller,e,10.5182,358.9560,26.6050,4.376884,0.1076358,0.41505873,121.8677,03/25.0/2020,2000,g 11.5,4.0
# From MPC106349
189P/NEAT,e,20.0740,281.7409,16.2474,2.947387,0.1947818,0.58867232,187.3022,03/25.0/2020,2000,g 19.0,4.0
# From MPC 75724
190P/Mueller,e,2.1739,335.5701,50.2946,4.236277,0.1130388,0.52062758,163.6454,03/25.0/2020,2000,g 13.0,4.0
# From MPC 92277
191P/McNaught,e,8.8450,98.2423,283.8808,3.641321,0.1418455,0.38694332,308.9875,03/25.0/2020,2000,g 13.0,4.0
# From MPC 75724
192P/Shoemaker-Levy,e,24.5299,51.6490,312.8947,6.478869,0.0597662,0.77265736,269.0216,03/25.0/2020,2000,g 15.0,4.0
# From MPC 92277
193P/LINEAR-NEAT,e,10.6869,335.1928,8.2676,3.575183,0.1457997,0.39398094,284.3587,03/25.0/2020,2000,g 14.0,4.0
# From MPC 98566
194P/LINEAR,e,11.1679,351.6570,130.7206,3.987366,0.1237870,0.57734013,183.6912,03/25.0/2020,2000,g 16.0,4.0
# From MPC 75724
195P/Hill,e,36.3417,243.0962,249.5083,6.497258,0.0595126,0.31334644,243.7603,03/25.0/2020,2000,g  8.5,4.0
# From MPC 92985
196P/Tichy,e,19.3037,24.2123,12.3374,3.797140,0.1332046,0.42870008,233.5391,03/25.0/2020,2000,g 13.5,4.0
# From MPC 94676
197P/LINEAR,e,25.5506,66.3947,188.7305,2.867181,0.2030118,0.62995582,159.5907,03/25.0/2020,2000,g 16.5,2.0
# From NK 1596
198P/ODAS,e,1.3385,358.2495,69.2749,3.601007,0.1442342,0.44311147,67.3840,03/25.0/2020,2000,g  9.0,4.0
# From MPC 75725
199P/Shoemaker,e,24.9357,92.4002,191.5532,5.899405,0.0687847,0.50603222,275.3614,03/25.0/2020,2000,g 10.0,4.0
# From MPC118098
200P/Larsen,e,12.1047,234.8038,133.9999,4.936546,0.0898606,0.33206382,21.5984,03/25.0/2020,2000,g  9.0,4.0
# From MPC 93588
201P/LONEOS,e,5.7385,20.1484,41.0386,3.362824,0.1598262,0.63807561,291.7283,03/25.0/2020,2000,g 14.0,4.0
# From MPC103849
202P/Scotti,e,2.0251,183.4272,273.5952,3.971705,0.1245198,0.29190317,174.1265,03/25.0/2020,2000,g 13.5,4.0
# From MPEC 2019-TG9
203P/Korlevic,e,2.9733,290.3490,154.8770,4.671056,0.0976296,0.31497743,1.9485,03/25.0/2020,2000,g 14.5,2.0
# From MPC 98566
204P/LINEAR-NEAT,e,6.6366,108.8372,354.8673,3.632049,0.1423890,0.48038264,221.9435,03/25.0/2020,2000,g 14.0,4.0
# From MPC 98566
205P/Giacobini,e,15.2996,179.5988,154.1795,3.543178,0.1477797,0.56774052,262.5319,03/25.0/2020,2000,g 13.0,4.0
# From MPC 75725
206P/Barnard-Boattini,e,33.6329,202.3856,189.4276,3.488395,0.1512744,0.55146022,307.8914,03/25.0/2020,2000,g 19.0,4.0
# From MPC 75725
207P/NEAT,e,10.1490,199.8099,271.7707,3.865350,0.1296943,0.75998747,176.8865,03/25.0/2020,2000,g 16.0,4.0
# From MPC101100
208P/McMillan,e,4.4087,36.3721,310.3824,4.047736,0.1210280,0.37312891,164.7955,03/25.0/2020,2000,g 12.5,4.0
# From MPC 90771
209P/LINEAR,e,21.2581,62.7672,152.4864,2.960547,0.1934845,0.67326424,55.3770,03/25.0/2020,2000,g 17.0,2.0
# From MPC105242
210P/Christensen,e,10.2619,93.8355,345.9097,3.165944,0.1749642,0.83322728,357.5639,03/25.0/2020,2000,g 13.5,4.0
# From MPC 96868
211P/Hill,e,18.9211,117.1378,4.1273,3.549399,0.1473913,0.34222674,223.7676,03/25.0/2020,2000,g 12.5,4.0
# From MPC104795
212P/NEAT,e,22.6598,98.7018,14.3740,3.884713,0.1287258,0.58811975,166.1676,03/25.0/2020,2000,g 17.0,2.0
# From MPC114608
213P/Van Ness,e,10.3816,311.3006,5.5963,3.348375,0.1608618,0.40800982,146.7372,03/25.0/2020,2000,g 10.5,4.0
# From MPC 92986
214P/LINEAR,e,15.1874,348.2648,190.2918,3.615629,0.1433601,0.48608492,228.7806,03/25.0/2020,2000,g 13.0,4.0
# From MPC118098
215P/NEAT,e,10.5813,56.6858,262.0542,4.328262,0.1094545,0.16715570,13.9934,03/25.0/2020,2000,g 11.0,4.0
# From MPC100284
216P/LINEAR,e,9.0504,359.8222,151.3825,3.870322,0.1294445,0.44545690,180.5940,03/25.0/2020,2000,g 13.0,4.0
# From MPC108598
217P/LINEAR,e,12.8634,125.4723,246.8585,3.952170,0.1254442,0.68812197,123.2202,03/25.0/2020,2000,g 12.0,4.0
# From MPC105242
218P/LINEAR,e,2.7253,175.9777,59.7736,3.094580,0.1810513,0.62192348,325.0994,03/25.0/2020,2000,g 16.0,4.0
# From MPC100284
219P/LINEAR,e,11.5290,231.0045,107.3495,3.651349,0.1412616,0.35339339,159.3216,03/25.0/2020,2000,g 11.0,4.0
# From MPC105242
220P/McNaught,e,8.1279,150.1109,180.5626,3.115255,0.1792519,0.50179586,313.2701,03/25.0/2020,2000,g 15.0,4.0
# From MPC 93589
221P/LINEAR,e,11.4263,229.7288,40.0232,3.458187,0.1532609,0.49281942,263.0004,03/25.0/2020,2000,g 14.5,4.0
# From MPC 92277
222P/LINEAR,e,5.0944,6.8025,346.2257,2.899399,0.1996375,0.71434336,58.6801,03/25.0/2020,2000,g 20.0,4.0
# From MPEC 2019-VB6
223P/Skiff,e,27.0149,346.7789,37.8266,4.159245,0.1161936,0.41561931,49.1181,03/25.0/2020,2000,g 12.0,4.0
# From MPC 75727
224P/LINEAR-NEAT,e,13.3337,40.3868,16.8191,3.435599,0.1547748,0.40903448,217.8261,03/25.0/2020,2000,g 15.5,4.0
# From MPC 75727
225P/LINEAR,e,21.3453,14.1823,3.8714,3.651326,0.1412629,0.63749685,185.9762,03/25.0/2020,2000,g 18.0,4.0
# From MPC106349
226P/Pigott-LINEAR-Kowalski,e,44.0053,54.0059,341.0620,3.768056,0.1347498,0.52812341,174.9174,03/25.0/2020,2000,g 12.5,4.0
# From MPC102956
227P/Catalina-LINEAR,e,6.5111,49.5401,90.0682,3.572612,0.1459571,0.50488677,146.7779,03/25.0/2020,2000,g 16.5,2.0
# From MPEC 2017-X08
228P/LINEAR,e,7.9096,30.9886,115.3031,4.174370,0.1155627,0.17691765,1.6516,03/25.0/2020,2000,g 14.5,2.0
# From MPC106349
229P/Gibbs,e,26.0828,157.8965,223.9963,3.931953,0.1264130,0.37636263,131.3995,03/25.0/2020,2000,g 13.0,4.0
# From MPC110497
230P/LINEAR,e,15.5155,107.0217,313.8044,3.443065,0.1542717,0.55031633,248.5711,03/25.0/2020,2000,g 13.0,4.0
# From MPC114608
231P/LINEAR-NEAT,e,12.3341,133.0267,42.8198,4.017597,0.1223924,0.24759616,34.8131,03/25.0/2020,2000,g 14.5,2.0
# From MPC112394
232P/Hill,e,14.6306,56.0231,53.5075,4.483451,0.1038210,0.33438042,36.7161,03/25.0/2020,2000,g 11.5,4.0
# From MPC 92986
233P/La Sagra,e,11.2841,74.9268,27.0745,3.030154,0.1868560,0.41172062,324.3655,03/25.0/2020,2000,g 15.0,4.0
# From MPC110497
234P/LINEAR,e,11.5228,179.5721,357.4202,3.803571,0.1328669,0.25399654,136.9120,03/25.0/2020,2000,g 12.0,4.0
# From MPC110497
235P/LINEAR,e,8.8830,204.0132,333.5785,3.987104,0.1237992,0.31898224,91.5125,03/25.0/2020,2000,g 12.0,4.0
# From MPC107688
236P/LINEAR,e,16.3337,245.6598,119.2008,3.731643,0.1367269,0.50830411,116.9959,03/25.0/2020,2000,g 14.0,4.0
# From MPC109593
237P/LINEAR,e,14.0221,245.4183,25.1608,3.512430,0.1497244,0.43474970,188.5868,03/25.0/2020,2000,g 14.5,2.0
# From MPC107688
238P/Read,e,1.2645,51.6431,324.7227,3.163168,0.1751946,0.25232687,219.1169,03/25.0/2020,2000,g 14.5,4.0
# From MPC112394
239P/LINEAR,e,11.3042,255.9114,220.4213,4.471009,0.1042547,0.63079442,45.8574,03/25.0/2020,2000,g 17.5,2.0
# From MPC109593
240P/NEAT,e,23.5047,74.9241,352.0220,3.868873,0.1295172,0.44868805,87.9908,03/25.0/2020,2000,g 11.0,4.0
# From MPC 75729
